NORAD_CAT_ID,OBJECT_NAME,OBJECT_TYPE,EPOCH,MEAN_MOTION,ECCENTRICITY,INCLINATION,RA_OF_ASC_NODE,ARG_OF_PERICENTER,MEAN_ANOMALY,BSTAR,MEAN_MOTION_DOT,MEAN_MOTION_DDOT,TLE_LINE0,TLE_LINE1,TLE_LINE2,SEMIMAJOR_AXIS,PERIOD,APOGEE,PERIGEE,DECAYED
55636.0,STARLINK-5218,PAYLOAD,2024-06-05 02:00:16,14.98335799,0.0002905,70.001,24.6319,272.1342,87.9484,7.5525e-05,8.08e-06,0.0,0 STARLINK-5218,1 55636U 23021J   24157.08352221  .00000808  00000-0  75525-4 0  9999,2 55636  70.0010  24.6319 0002905 272.1342  87.9484 14.98335799 71744,6950.175,96.107,574.059,570.021,0.0
55636.0,STARLINK-5218,PAYLOAD,2024-06-05 08:24:48,14.98364557,0.000304,70.0018,23.9574,270.2915,89.7896,-0.00070372,-8.487e-05,0.0,0 STARLINK-5218,1 55636U 23021J   24157.35055765 -.00008487  00000-0 -70372-3 0  9999,2 55636  70.0018  23.9574 0003040 270.2915  89.7896 14.98364557 71788,6950.086,96.105,574.064,569.838,0.0
55636.0,STARLINK-5218,PAYLOAD,2024-06-05 14:49:21,14.983295,0.0002832,70.0025,23.2817,277.5099,82.5738,-7.5002e-06,-1.82e-06,0.0,0 STARLINK-5218,1 55636U 23021J   24157.61760802 -.00000182  00000-0 -75002-5 0  9994,2 55636  70.0025  23.2817 0002832 277.5099  82.5738 14.98329500 72124,6950.194,96.107,574.028,570.091,0.0
55636.0,STARLINK-5218,PAYLOAD,2024-06-05 21:13:53,14.98330031,0.0002912,70.0027,22.6124,268.6199,91.4626,1.4424e-05,7.9e-07,0.0,0 STARLINK-5218,1 55636U 23021J   24157.88464663  .00000079  00000-0  14424-4 0  9992,2 55636  70.0027  22.6124 0002912 268.6199  91.4626 14.98330031 71867,6950.193,96.107,574.082,570.034,0.0
55636.0,STARLINK-5218,PAYLOAD,2024-06-06 08:26:49,14.9833849,0.0003267,69.9964,21.433,268.3951,91.6834,-8.7325e-05,-1.135e-05,0.0,0 STARLINK-5218,1 55636U 23021J   24158.35196273 -.00001135  00000-0 -87325-4 0  9990,2 55636  69.9964  21.4330 0003267 268.3951  91.6834 14.98338490 72239,6950.167,96.106,574.302,569.761,0.0
55636.0,STARLINK-5218,PAYLOAD,2024-06-07 00:28:09,14.98347186,0.0003482,69.9967,19.7491,268.501,91.575,-0.00017215,-2.148e-05,0.0,0 STARLINK-5218,1 55636U 23021J   24159.01955990 -.00002148  00000-0 -17215-3 0  9998,2 55636  69.9967  19.7491 0003482 268.5010  91.5750 14.98347186 72033,6950.14,96.106,574.425,569.585,0.0
55636.0,STARLINK-5218,PAYLOAD,2024-06-07 14:53:23,14.98328197,0.0003128,69.9951,18.2342,269.0082,91.0718,0.00011703,1.304e-05,0.0,0 STARLINK-5218,1 55636U 23021J   24159.62040600  .00001304  00000-0  11703-3 0  9995,2 55636  69.9951  18.2342 0003128 269.0082  91.0718 14.98328197 72420,6950.198,96.107,574.237,569.889,0.0
55636.0,STARLINK-5218,PAYLOAD,2024-06-07 21:17:55,14.98331478,0.0003167,69.9952,17.5614,270.2667,89.8129,0.00011214,1.245e-05,0.0,0 STARLINK-5218,1 55636U 23021J   24159.88744440  .00001245  00000-0  11214-3 0  9997,2 55636  69.9952  17.5614 0003167 270.2667  89.8129 14.98331478 72169,6950.188,96.107,574.254,569.852,0.0
55636.0,STARLINK-5218,PAYLOAD,2024-06-08 00:30:11,14.98334891,0.0003248,69.9988,17.2251,270.6953,89.3834,0.00012566,1.407e-05,0.0,0 STARLINK-5218,1 55636U 23021J   24160.02096178  .00001407  00000-0  12566-3 0  9994,2 55636  69.9988  17.2251 0003248 270.6953  89.3834 14.98334891 72489,6950.178,96.107,574.3,569.785,0.0
55636.0,STARLINK-5218,PAYLOAD,2024-06-08 21:19:56,14.98333591,0.0003042,70.0007,15.0364,272.7272,87.3539,8.9966e-05,9.81e-06,0.0,0 STARLINK-5218,1 55636U 23021J   24160.88884275  .00000981  00000-0  89966-4 0  9996,2 55636  70.0007  15.0364 0003042 272.7272  87.3539 14.98333591 72312,6950.182,96.107,574.161,569.933,0.0
55636.0,STARLINK-5218,PAYLOAD,2024-06-09 13:21:17,14.98329244,0.0002996,70.0013,13.3533,273.2058,86.8758,3.0585e-05,2.72e-06,0.0,0 STARLINK-5218,1 55636U 23021J   24161.55644706  .00000272  00000-0  30585-4 0  9990,2 55636  70.0013  13.3533 0002996 273.2058  86.8758 14.98329244 72411,6950.195,96.107,574.143,569.978,0.0
55636.0,STARLINK-5218,PAYLOAD,2024-06-09 22:58:05,14.98329198,0.0002956,70.001,12.3436,272.4809,87.6011,3.461e-05,3.2e-06,0.0,0 STARLINK-5218,1 55636U 23021J   24161.95700709  .00000320  00000-0  34610-4 0  9997,2 55636  70.0010  12.3436 0002956 272.4809  87.6011 14.98329198 72778,6950.195,96.107,574.115,570.006,0.0
55636.0,STARLINK-5218,PAYLOAD,2024-06-10 06:58:45,14.98330296,0.0002963,70.0008,11.5019,272.3429,87.7391,4.4573e-05,4.39e-06,0.0,0 STARLINK-5218,1 55636U 23021J   24162.29080634  .00000439  00000-0  44573-4 0  9993,2 55636  70.0008  11.5019 0002963 272.3429  87.7391 14.98330296 72827,6950.192,96.107,574.116,569.998,0.0
55636.0,STARLINK-5218,PAYLOAD,2024-06-10 21:23:57,14.98332551,0.0003034,70.0004,9.9868,270.012,90.0691,8.8017e-05,9.57e-06,0.0,0 STARLINK-5218,1 55636U 23021J   24162.89164278  .00000957  00000-0  88017-4 0  9992,2 55636  70.0004   9.9868 0003034 270.0120  90.0691 14.98332551 72612,6950.185,96.107,574.159,569.941,0.0
55636.0,STARLINK-5218,PAYLOAD,2024-06-10 23:00:05,14.98333511,0.0003022,70.0005,9.8185,269.7288,90.3525,9.7462e-05,1.07e-05,0.0,0 STARLINK-5218,1 55636U 23021J   24162.95840187  .00001070  00000-0  97462-4 0  9990,2 55636  70.0005   9.8185 0003022 269.7288  90.3525 14.98333511 72921,6950.182,96.107,574.147,569.947,0.0
55636.0,STARLINK-5218,PAYLOAD,2024-06-11 07:00:46,14.98333918,0.0003018,70.0005,8.977,269.2422,90.8391,9.306e-05,1.018e-05,0.0,0 STARLINK-5218,1 55636U 23021J   24163.29220119  .00001018  00000-0  93060-4 0  9997,2 55636  70.0005   8.9770 0003018 269.2422  90.8391 14.98333918 72973,6950.181,96.107,574.143,569.948,0.0
55636.0,STARLINK-5218,PAYLOAD,2024-06-11 23:02:06,14.9833171,0.0002995,70.0004,7.2939,268.057,92.0246,0.00010564,1.168e-05,0.0,0 STARLINK-5218,1 55636U 23021J   24163.95980196  .00001168  00000-0  10564-3 0  9991,2 55636  70.0004   7.2939 0002995 268.0570  92.0246 14.98331710 72774,6950.188,96.107,574.134,569.971,0.0
55636.0,STARLINK-5218,PAYLOAD,2024-06-12 13:27:19,14.98326986,0.0003096,70.0,5.7782,269.8073,90.2731,-5.9823e-06,-1.64e-06,0.0,0 STARLINK-5218,1 55636U 23021J   24164.56064707 -.00000164  00000-0 -59823-5 0  9990,2 55636  70.0000   5.7782 0003096 269.8073  90.2731 14.98326986 72867,6950.202,96.107,574.219,569.915,0.0
55636.0,STARLINK-5218,PAYLOAD,2024-06-12 21:28:00,14.98328018,0.0003064,69.9999,4.9364,266.8853,93.1956,-1.2053e-05,-2.37e-06,0.0,0 STARLINK-5218,1 55636U 23021J   24164.89444672 -.00000237  00000-0 -12053-4 0  9993,2 55636  69.9999   4.9364 0003064 266.8853  93.1956 14.98328018 73215,6950.199,96.107,574.194,569.934,0.0
55636.0,STARLINK-5218,PAYLOAD,2024-06-13 13:29:20,14.98331099,0.0003085,69.9999,3.2534,270.0312,90.0494,9.1201e-05,9.95e-06,0.0,0 STARLINK-5218,1 55636U 23021J   24165.56204190  .00000995  00000-0  91201-4 0  9998,2 55636  69.9999   3.2534 0003085 270.0312  90.0494 14.98331099 73010,6950.189,96.107,574.199,569.91,0.0
55636.0,STARLINK-5218,PAYLOAD,2024-06-13 15:05:28,14.98324087,0.0003122,69.9998,3.0848,269.0443,91.0358,0.0002132,2.451e-05,0.0,0 STARLINK-5218,1 55636U 23021J   24165.62880350  .00002451  00000-0  21320-3 0  9996,2 55636  69.9998   3.0848 0003122 269.0443  91.0358 14.98324087 73323,6950.211,96.107,574.246,569.906,0.0
55636.0,STARLINK-5218,PAYLOAD,2024-06-13 21:30:00,14.9833627,0.0003149,69.9999,2.4116,270.2415,89.8384,6.0269e-05,6.26e-06,0.0,0 STARLINK-5218,1 55636U 23021J   24165.89583857  .00000626  00000-0  60269-4 0  9995,2 55636  69.9999   2.4116 0003149 270.2415  89.8384 14.98336270 73362,6950.174,96.107,574.227,569.85,0.0
55636.0,STARLINK-5218,PAYLOAD,2024-06-14 13:31:22,14.98316865,0.0002789,70.0027,0.7303,270.0638,90.0201,-2.843e-05,-4.32e-06,0.0,0 STARLINK-5218,1 55636U 23021J   24166.56345620 -.00000432  00000-0 -28430-4 0  9995,2 55636  70.0027   0.7303 0002789 270.0638  90.0201 14.98316865 73461,6950.234,96.108,574.037,570.16,0.0
55636.0,STARLINK-5218,PAYLOAD,2024-06-14 21:32:03,14.98310961,0.0002604,70.0017,359.889,259.4107,100.6759,-6.4594e-05,-8.63e-06,0.0,0 STARLINK-5218,1 55636U 23021J   24166.89726350 -.00000863  00000-0 -64594-4 0  9993,2 55636  70.0017 359.8890 0002604 259.4107 100.6759 14.98310961 73510,6950.252,96.108,573.927,570.307,0.0
55636.0,STARLINK-5218,PAYLOAD,2024-06-15 13:33:23,14.98325604,0.0003324,69.9994,358.2034,269.1383,90.9395,-2.0026e-05,-3.32e-06,0.0,0 STARLINK-5218,1 55636U 23021J   24167.56485659 -.00000332  00000-0 -20026-4 0  9995,2 55636  69.9994 358.2034 0003324 269.1383  90.9395 14.98325604 73313,6950.206,96.107,574.382,569.761,0.0
55636.0,STARLINK-5218,PAYLOAD,2024-06-15 19:57:55,14.98329161,0.0003287,69.9995,357.5302,268.8796,91.1987,4.4728e-05,4.41e-06,0.0,0 STARLINK-5218,1 55636U 23021J   24167.83189367  .00000441  00000-0  44728-4 0  9996,2 55636  69.9995 357.5302 0003287 268.8796  91.1987 14.98329161 73655,6950.195,96.107,574.345,569.776,0.0
55636.0,STARLINK-5218,PAYLOAD,2024-06-16 13:35:23,14.98332902,0.000334,69.9994,355.6786,268.2374,91.8403,0.00025713,2.977e-05,0.0,0 STARLINK-5218,1 55636U 23021J   24168.56624607  .00002977  00000-0  25713-3 0  9996,2 55636  69.9994 355.6786 0003340 268.2374  91.8403 14.98332902 73764,6950.184,96.107,574.37,569.728,0.0
55636.0,STARLINK-5218,PAYLOAD,2024-06-16 21:36:03,14.98339993,0.0003271,69.9996,354.8366,269.7216,90.3569,0.00033005,3.848e-05,0.0,0 STARLINK-5218,1 55636U 23021J   24168.90004083  .00003848  00000-0  33005-3 0  9995,2 55636  69.9996 354.8366 0003271 269.7216  90.3569 14.98339993 73815,6950.162,96.106,574.3,569.754,0.0
55636.0,STARLINK-5218,PAYLOAD,2024-06-17 20:01:57,14.9833176,0.0003078,70.0,352.4804,270.0619,90.0187,4.2274e-05,4.11e-06,0.0,0 STARLINK-5218,1 55636U 23021J   24169.83469032  .00000411  00000-0  42274-4 0  9999,2 55636  70.0000 352.4804 0003078 270.0619  90.0187 14.98331760 73651,6950.187,96.107,574.192,569.913,0.0
55636.0,STARLINK-5218,PAYLOAD,2024-06-17 21:38:05,14.9833303,0.0003052,70.0001,352.3121,270.0997,89.9812,5.6648e-05,5.83e-06,0.0,0 STARLINK-5218,1 55636U 23021J   24169.90144907  .00000583  00000-0  56648-4 0  9998,2 55636  70.0001 352.3121 0003052 270.0997  89.9812 14.98333030 73962,6950.184,96.107,574.17,569.927,0.0
